NORAD_CAT_ID,OBJECT_NAME,OBJECT_TYPE,EPOCH,MEAN_MOTION,ECCENTRICITY,INCLINATION,RA_OF_ASC_NODE,ARG_OF_PERICENTER,MEAN_ANOMALY,BSTAR,MEAN_MOTION_DOT,MEAN_MOTION_DDOT,TLE_LINE0,TLE_LINE1,TLE_LINE2,SEMIMAJOR_AXIS,PERIOD,APOGEE,PERIGEE,DECAYED
55400.0,STARLINK-5632,PAYLOAD,2023-10-19 22:16:45,14.98333395,0.0002956,69.9995,102.494,270.4672,89.6148,8.492e-06,8e-08,0.0,0 STARLINK-5632,1 55400U 23014K   23292.92830444  .00000008  00000-0  84920-5 0  9992,2 55400  69.9995 102.4940 0002956 270.4672  89.6148 14.98333395 41473,6950.182,96.107,574.102,569.993,0.0
55400.0,STARLINK-5632,PAYLOAD,2023-10-20 12:41:58,14.98328676,0.0002813,69.9993,100.9787,267.8453,92.2384,-1.9318e-05,-3.23e-06,0.0,0 STARLINK-5632,1 55400U 23014K   23293.52914805 -.00000323  00000-0 -19318-4 0  9993,2 55400  69.9993 100.9787 0002813 267.8453  92.2384 14.98328676 40626,6950.197,96.107,574.017,570.107,0.0
55400.0,STARLINK-5632,PAYLOAD,2023-10-20 20:42:38,14.98326446,0.0002887,69.9987,100.1359,265.3386,94.7443,-4.5564e-05,-6.37e-06,0.0,0 STARLINK-5632,1 55400U 23014K   23293.86295026 -.00000637  00000-0 -45564-4 0  9997,2 55400  69.9987 100.1359 0002887 265.3386  94.7443 14.98326446 41611,6950.204,96.107,574.075,570.062,0.0
55400.0,STARLINK-5632,PAYLOAD,2023-10-21 12:43:59,14.98332559,0.000298,69.9991,98.452,265.3106,94.7713,1.0673e-05,3.4e-07,0.0,0 STARLINK-5632,1 55400U 23014K   23294.53054463  .00000034  00000-0  10673-4 0  9992,2 55400  69.9991  98.4520 0002980 265.3106  94.7713 14.98332559 40777,6950.185,96.107,574.121,569.979,0.0
55400.0,STARLINK-5632,PAYLOAD,2023-10-21 20:44:39,14.98334966,0.0003076,69.9986,97.6109,269.357,90.7237,2.2239e-05,1.72e-06,0.0,0 STARLINK-5632,1 55400U 23014K   23294.86434222  .00000172  00000-0  22239-4 0  9997,2 55400  69.9986  97.6109 0003076 269.3570  90.7237 14.98334966 41762,6950.178,96.107,574.18,569.905,0.0
55400.0,STARLINK-5632,PAYLOAD,2023-10-22 12:46:00,14.98323226,0.0003085,69.9984,95.9282,269.4847,90.5959,-2.4505e-05,-3.85e-06,0.0,0 STARLINK-5632,1 55400U 23014K   23295.53195119 -.00000385  00000-0 -24505-4 0  9997,2 55400  69.9984  95.9282 0003085 269.4847  90.5959 14.98323226 40924,6950.214,96.107,574.223,569.935,0.0
55400.0,STARLINK-5632,PAYLOAD,2023-10-22 14:22:08,14.98323634,0.0003083,69.9985,95.7598,269.4635,90.6171,-1.9895e-05,-3.3e-06,0.0,0 STARLINK-5632,1 55400U 23014K   23295.59871103 -.00000330  00000-0 -19895-4 0  9993,2 55400  69.9985  95.7598 0003083 269.4635  90.6171 14.98323634 41871,6950.213,96.107,574.22,569.935,0.0
55400.0,STARLINK-5632,PAYLOAD,2023-10-22 20:46:40,14.98326167,0.000321,69.9984,95.0871,268.8278,91.2513,4.1162e-06,-4.4e-07,0.0,0 STARLINK-5632,1 55400U 23014K   23295.86574940 -.00000044  00000-0  41162-5 0  9996,2 55400  69.9984  95.0871 0003210 268.8278  91.2513 14.98326167 41911,6950.205,96.107,574.301,569.839,0.0
55400.0,STARLINK-5632,PAYLOAD,2023-10-23 11:11:53,14.98332393,0.000323,69.9986,93.5721,268.8221,91.2568,-2.1886e-05,-3.54e-06,0.0,0 STARLINK-5632,1 55400U 23014K   23296.46658668 -.00000354  00000-0 -21886-4 0  9998,2 55400  69.9986  93.5721 0003230 268.8221  91.2568 14.98332393 41064,6950.185,96.107,574.295,569.806,0.0
55400.0,STARLINK-5632,PAYLOAD,2023-10-23 20:48:41,14.98336364,0.0003211,69.9987,92.5621,268.8705,91.2086,2.0773e-05,1.55e-06,0.0,0 STARLINK-5632,1 55400U 23014K   23296.86714202  .00000155  00000-0  20773-4 0  9990,2 55400  69.9987  92.5621 0003211 268.8705  91.2086 14.98336364 42067,6950.173,96.107,574.27,569.807,0.0
55400.0,STARLINK-5632,PAYLOAD,2023-10-24 11:13:53,14.98354549,0.0003202,69.999,91.0471,266.2729,93.8063,-0.00039372,-4.791e-05,0.0,0 STARLINK-5632,1 55400U 23014K   23297.46798451 -.00004791  00000-0 -39372-3 0  9991,2 55400  69.9990  91.0471 0003202 266.2729  93.8063 14.98354549 41210,6950.117,96.105,574.207,569.757,0.0
55400.0,STARLINK-5632,PAYLOAD,2023-10-25 14:28:11,14.98331788,0.0003052,69.9995,88.1856,269.8324,90.2485,-2.6755e-05,-4.12e-06,0.0,0 STARLINK-5632,1 55400U 23014K   23298.60290528 -.00000412  00000-0 -26755-4 0  9998,2 55400  69.9995  88.1856 0003052 269.8324  90.2485 14.98331788 41389,6950.187,96.107,574.174,569.931,0.0
55400.0,STARLINK-5632,PAYLOAD,2023-10-26 14:30:12,14.9832621,0.0003044,69.9998,85.6609,270.2785,89.8025,-5.2395e-05,-7.18e-06,0.0,0 STARLINK-5632,1 55400U 23014K   23299.60430934 -.00000718  00000-0 -52395-4 0  9994,2 55400  69.9998  85.6609 0003044 270.2785  89.8025 14.98326210 42477,6950.205,96.107,574.185,569.954,0.0
55400.0,STARLINK-5632,PAYLOAD,2023-10-26 19:18:36,14.98329793,0.0003094,69.9996,85.1553,268.7372,91.3433,-2.27e-05,-3.64e-06,0.0,0 STARLINK-5632,1 55400U 23014K   23299.80458634 -.00000364  00000-0 -22700-4 0  9997,2 55400  69.9996  85.1553 0003094 268.7372  91.3433 14.98329793 41566,6950.194,96.107,574.209,569.908,0.0
55400.0,STARLINK-5632,PAYLOAD,2023-10-27 11:19:56,14.98332862,0.0003132,69.9998,83.473,270.798,89.282,3.538e-05,3.29e-06,0.0,0 STARLINK-5632,1 55400U 23014K   23300.47218217  .00000329  00000-0  35380-4 0  9991,2 55400  69.9998  83.4730 0003132 270.7980  89.2820 14.98332862 42600,6950.184,96.107,574.226,569.872,0.0
55400.0,STARLINK-5632,PAYLOAD,2023-10-27 19:20:36,14.98338139,0.000309,69.9998,82.6306,269.6967,90.3838,5.2967e-05,5.39e-06,0.0,0 STARLINK-5632,1 55400U 23014K   23300.80597700  .00000539  00000-0  52967-4 0  9998,2 55400  69.9998  82.6306 0003090 269.6967  90.3838 14.98338139 41711,6950.168,96.106,574.18,569.885,0.0
55400.0,STARLINK-5632,PAYLOAD,2023-10-28 11:21:58,14.98320523,0.0003011,69.9998,80.948,270.3457,89.7357,-4.0691e-05,-5.78e-06,0.0,0 STARLINK-5632,1 55400U 23014K   23301.47359123 -.00000578  00000-0 -40691-4 0  9993,2 55400  69.9998  80.9480 0003011 270.3457  89.7357 14.98320523 41818,6950.222,96.108,574.18,569.994,0.0
55400.0,STARLINK-5632,PAYLOAD,2023-10-28 12:58:06,14.98321868,0.0003105,69.9993,80.7788,267.1123,92.9681,-8.911e-06,-1.99e-06,0.0,0 STARLINK-5632,1 55400U 23014K   23301.54034944 -.00000199  00000-0 -89110-5 0  9991,2 55400  69.9993  80.7788 0003105 267.1123  92.9681 14.98321868 42764,6950.218,96.108,574.241,569.925,0.0
55400.0,STARLINK-5632,PAYLOAD,2023-10-28 19:22:38,14.98326167,0.000304,69.9998,80.1062,267.4808,92.6003,-1.2317e-05,-2.4e-06,0.0,0 STARLINK-5632,1 55400U 23014K   23301.80738784 -.00000240  00000-0 -12317-4 0  9994,2 55400  69.9998  80.1062 0003040 267.4808  92.6003 14.98326167 42806,6950.205,96.107,574.183,569.957,0.0
55400.0,STARLINK-5632,PAYLOAD,2023-10-29 13:00:05,14.98342885,0.0003126,69.9999,78.2547,268.8984,91.1817,7.4481e-05,7.96e-06,0.0,0 STARLINK-5632,1 55400U 23014K   23302.54173232  .00000796  00000-0  74481-4 0  9991,2 55400  69.9999  78.2547 0003126 268.8984  91.1817 14.98342885 41977,6950.153,96.106,574.191,569.845,0.0
55400.0,STARLINK-5632,PAYLOAD,2023-10-29 14:36:13,14.98341453,0.0003184,70.0002,78.0863,270.5924,89.487,6.2603e-05,6.54e-06,0.0,0 STARLINK-5632,1 55400U 23014K   23302.60849296  .00000654  00000-0  62603-4 0  9994,2 55400  70.0002  78.0863 0003184 270.5924  89.4870 14.98341453 42927,6950.157,96.106,574.235,569.81,0.0
55400.0,STARLINK-5632,PAYLOAD,2023-10-29 19:24:37,14.98350761,0.0003123,69.9998,77.5815,268.1181,91.962,0.0001222,1.366e-05,0.0,0 STARLINK-5632,1 55400U 23014K   23302.80876327  .00001366  00000-0  12220-3 0  9991,2 55400  69.9998  77.5815 0003123 268.1181  91.9620 14.98350761 42956,6950.129,96.106,574.164,569.823,0.0
55400.0,STARLINK-5632,PAYLOAD,2023-10-30 11:25:59,14.98313615,0.000258,69.9997,75.8975,261.2029,98.8838,0.00011713,1.304e-05,0.0,0 STARLINK-5632,1 55400U 23014K   23303.47638725  .00001304  00000-0  11713-3 0  9991,2 55400  69.9997  75.8975 0002580 261.2029  98.8838 14.98313615 42116,6950.244,96.108,573.902,570.315,0.0
55400.0,STARLINK-5632,PAYLOAD,2023-10-31 09:51:52,14.98333702,0.0003129,70.001,73.5431,272.2909,87.7892,-0.00010206,-1.311e-05,0.0,0 STARLINK-5632,1 55400U 23014K   23304.41102168 -.00001311  00000-0 -10206-3 0  9999,2 55400  70.0010  73.5431 0003129 272.2909  87.7892 14.98333702 42257,6950.181,96.107,574.221,569.872,0.0
55400.0,STARLINK-5632,PAYLOAD,2023-10-31 14:40:16,14.98331142,0.000319,70.0002,73.0373,271.3301,88.7492,-0.00010044,-1.291e-05,0.0,0 STARLINK-5632,1 55400U 23014K   23304.61130264 -.00001291  00000-0 -10044-3 0  9996,2 55400  70.0002  73.0373 0003190 271.3301  88.7492 14.98331142 43223,6950.189,96.107,574.271,569.837,0.0
55400.0,STARLINK-5632,PAYLOAD,2023-10-31 17:52:32,14.98331874,0.0003159,70.0008,72.7011,272.8976,87.1821,-0.00010144,-1.303e-05,0.0,0 STARLINK-5632,1 55400U 23014K   23304.74482234 -.00001303  00000-0 -10144-3 0  9992,2 55400  70.0008  72.7011 0003159 272.8976  87.1821 14.98331874 43246,6950.187,96.107,574.248,569.857,0.0
55400.0,STARLINK-5632,PAYLOAD,2023-11-01 11:30:01,14.98305894,0.0002916,70.0007,70.8494,272.2568,87.8257,0.00033943,3.957e-05,0.0,0 STARLINK-5632,1 55400U 23014K   23305.47918895  .00003957  00000-0  33943-3 0  9997,2 55400  70.0007  70.8494 0002916 272.2568  87.8257 14.98305894 42411,6950.267,96.109,574.159,570.106,0.0
55400.0,STARLINK-5632,PAYLOAD,2023-11-01 14:42:17,14.98347189,0.0002564,70.0008,70.5127,267.5559,92.5306,-0.00029245,-3.582e-05,0.0,0 STARLINK-5632,1 55400U 23014K   23305.61269863 -.00003582  00000-0 -29245-3 0  9993,2 55400  70.0008  70.5127 0002564 267.5559  92.5306 14.98347189 43375,6950.14,96.106,573.787,570.223,0.0
55400.0,STARLINK-5632,PAYLOAD,2023-11-01 17:54:33,14.9832614,0.000302,70.0007,70.1751,271.4243,88.657,9.1016e-05,9.93e-06,0.0,0 STARLINK-5632,1 55400U 23014K   23305.74622219  .00000993  00000-0  91016-4 0  9992,2 55400  70.0007  70.1751 0003020 271.4243  88.6570 14.98326140 42456,6950.205,96.107,574.169,569.971,0.0
55400.0,STARLINK-5632,PAYLOAD,2023-11-02 14:44:18,14.98324346,0.000265,70.0017,67.9871,259.0321,101.054,8.7963e-05,9.57e-06,0.0,0 STARLINK-5632,1 55400U 23014K   23306.61410472  .00000957  00000-0  87963-4 0  9991,2 55400  70.0017  67.9871 0002650 259.0321 101.0540 14.98324346 43523,6950.21,96.107,573.917,570.234,0.0
